*******************************************************************************
 Revised: Jul 31, 2013         Solar System Barycenter                        0

 Dynamical point 
 ---------------
 The center of mass for the solar system. See object 10 for Sun ephemeris.
*******************************************************************************
 
 
*******************************************************************************
Ephemeris / WWW_USER Thu Jan 14 12:39:44 2021 Pasadena, USA      / Horizons
*******************************************************************************
Target body name: Solar System Barycenter (0)     {source: DE431mx}
Center body name: Earth (399)                     {source: DE431mx}
Center-site name: BODY CENTER
*******************************************************************************
Start time      : A.D. 2018-Jan-01 00:00:00.0000 TDB
Stop  time      : A.D. 2019-Jan-01 00:00:00.0000 TDB
Step-size       : 7200 minutes
*******************************************************************************
Center geodetic : 0.00000000,0.00000000,0.0000000 {E-lon(deg),Lat(deg),Alt(km)}
Center cylindric: 0.00000000,0.00000000,0.0000000 {E-lon(deg),Dxy(km),Dz(km)}
Center radii    : 6378.1 x 6378.1 x 6356.8 km     {Equator, meridian, pole}    
Output units    : AU-D
Output type     : GEOMETRIC cartesian states
Output format   : 1 (position only)
EOP file        : eop.210113.p210406
EOP coverage    : DATA-BASED 1962-JAN-20 TO 2021-JAN-13. PREDICTS-> 2021-APR-05
Reference frame : ICRF
*******************************************************************************
            JDTDB,            Calendar Date (TDB),                      X,                      Y,                      Z,
**************************************************************************************************************************
$$SOE
2458119.500000000, A.D. 2018-Jan-01 00:00:00.0000,  1.734173457390217E-01, -8.934094905392699E-01, -3.871679786806931E-01,
2458124.500000000, A.D. 2018-Jan-06 00:00:00.0000,  2.586676831066763E-01, -8.756596697183675E-01, -3.794710753146112E-01,
2458129.500000000, A.D. 2018-Jan-11 00:00:00.0000,  3.419288256990435E-01, -8.511588107496320E-01, -3.688490178979140E-01,
2458134.500000000, A.D. 2018-Jan-16 00:00:00.0000,  4.225448860409057E-01, -8.200639359018939E-01, -3.553719493817970E-01,
2458139.500000000, A.D. 2018-Jan-21 00:00:00.0000,  4.998583979231073E-01, -7.826142025679143E-01, -3.391417792248379E-01,
2458144.500000000, A.D. 2018-Jan-26 00:00:00.0000,  5.732474739641271E-01, -7.391305534208010E-01, -3.202940507764804E-01,
2458149.500000000, A.D. 2018-Jan-31 00:00:00.0000,  6.421596665654249E-01, -6.899953160241431E-01, -2.989924349939450E-01,
2458154.500000000, A.D. 2018-Feb-05 00:00:00.0000,  7.061162526943432E-01, -6.356013221623417E-01, -2.754102478653515E-01,
2458159.500000000, A.D. 2018-Feb-10 00:00:00.0000,  7.646500467464322E-01, -5.763401882411275E-01, -2.497213253396829E-01,
2458164.500000000, A.D. 2018-Feb-15 00:00:00.0000,  8.172968912015516E-01, -5.126573683258160E-01, -2.221185540412011E-01,
2458169.500000000, A.D. 2018-Feb-20 00:00:00.0000,  8.636363894524021E-01, -4.450642170946051E-01, -1.928204820870159E-01,
2458174.500000000, A.D. 2018-Feb-25 00:00:00.0000,  9.033245516619505E-01, -3.741245512210198E-01, -1.620682660692081E-01,
2458179.500000000, A.D. 2018-Mar-02 00:00:00.0000,  9.361144082597922E-01, -3.004142860140300E-01, -1.301121266604048E-01,
2458184.500000000, A.D. 2018-Mar-07 00:00:00.0000,  9.618187363029056E-01, -2.244784549314255E-01, -9.719281332290754E-02,
2458189.500000000, A.D. 2018-Mar-12 00:00:00.0000,  9.802583892147628E-01, -1.468630918051764E-01, -6.354897765336132E-02,
2458194.500000000, A.D. 2018-Mar-17 00:00:00.0000,  9.912881370452808E-01, -6.815470376937892E-02, -2.943277010044571E-02,
2458199.500000000, A.D. 2018-Mar-22 00:00:00.0000,  9.948312968353086E-01,  1.102537372914447E-02,  4.890076361126943E-03,
2458204.500000000, A.D. 2018-Mar-27 00:00:00.0000,  9.909074289715450E-01,  9.004782965075166E-02,  3.914827150921958E-02,
2458209.500000000, A.D. 2018-Apr-01 00:00:00.0000,  9.796209239206071E-01,  1.683267559390106E-01,  7.308461564589663E-02,
2458214.500000000, A.D. 2018-Apr-06 00:00:00.0000,  9.610995135547274E-01,  2.453239068846610E-01,  1.064621122511532E-01,
2458219.500000000, A.D. 2018-Apr-11 00:00:00.0000,  9.354817361637213E-01,  3.204986275951519E-01,  1.390469065543011E-01,
2458224.500000000, A.D. 2018-Apr-16 00:00:00.0000,  9.029533241648779E-01,  3.932938765348096E-01,  1.706007527301850E-01,
2458229.500000000, A.D. 2018-Apr-21 00:00:00.0000,  8.637753556307828E-01,  4.631505557624522E-01,  2.008842378315307E-01,
2458234.500000000, A.D. 2018-Apr-26 00:00:00.0000,  8.182979904542063E-01,  5.295512562092234E-01,  2.296717734837376E-01,
2458239.500000000, A.D. 2018-May-01 00:00:00.0000,  7.669093138397997E-01,  5.920551294414341E-01,  2.567680196928528E-01,
2458244.500000000, A.D. 2018-May-06 00:00:00.0000,  7.099900290927821E-01,  6.502600227119162E-01,  2.819972988913707E-01,
2458249.500000000, A.D. 2018-May-11 00:00:00.0000,  6.479353128297294E-01,  7.037657852938544E-01,  3.051885361265280E-01,
2458254.500000000, A.D. 2018-May-16 00:00:00.0000,  5.811862112267687E-01,  7.521776022295096E-01,  3.261740530186490E-01,
2458259.500000000, A.D. 2018-May-21 00:00:00.0000,  5.102541578484764E-01,  7.951303939273330E-01,  3.447965315443178E-01,
2458264.500000000, A.D. 2018-May-26 00:00:00.0000,  4.357026509317594E-01,  8.323410660034239E-01,  3.609294517932080E-01,
2458269.500000000, A.D. 2018-May-31 00:00:00.0000,  3.580793554179586E-01,  8.635994427269371E-01,  3.744786524208544E-01,
2458274.500000000, A.D. 2018-Jun-05 00:00:00.0000,  2.779124176114387E-01,  8.887174326238948E-01,  3.853636977619872E-01,
2458279.500000000, A.D. 2018-Jun-10 00:00:00.0000,  1.957435221358197E-01,  9.075164248623325E-01,  3.935105220716743E-01,
2458284.500000000, A.D. 2018-Jun-15 00:00:00.0000,  1.121531772945979E-01,  9.198395791492150E-01,  3.988537528535498E-01,
2458289.500000000, A.D. 2018-Jun-20 00:00:00.0000,  2.777359046726435E-02,  9.255915615687466E-01,  4.013501156213579E-01,
2458294.500000000, A.D. 2018-Jun-25 00:00:00.0000, -5.676882713043595E-02,  9.247717368156178E-01,  4.009949122393030E-01,
2458299.500000000, A.D. 2018-Jun-30 00:00:00.0000, -1.408966081617534E-01,  9.174238519787323E-01,  3.978064871716129E-01,
2458304.500000000, A.D. 2018-Jul-05 00:00:00.0000, -2.240528576059259E-01,  9.036029548048792E-01,  3.918114963444621E-01,
2458309.500000000, A.D. 2018-Jul-10 00:00:00.0000, -3.056723469069910E-01,  8.833795325702906E-01,  3.830438570725005E-01,
2458314.500000000, A.D. 2018-Jul-15 00:00:00.0000, -3.851607750203391E-01,  8.568614826252017E-01,  3.715508927999283E-01,
2458319.500000000, A.D. 2018-Jul-20 00:00:00.0000, -4.619114612349324E-01,  8.242418672279993E-01,  3.574120160710097E-01,
2458324.500000000, A.D. 2018-Jul-25 00:00:00.0000, -5.353778792260481E-01,  7.857861206246881E-01,  3.407394513434928E-01,
2458329.500000000, A.D. 2018-Jul-30 00:00:00.0000, -6.050702901916951E-01,  7.417735761658713E-01,  3.216559644095069E-01,
2458334.500000000, A.D. 2018-Aug-04 00:00:00.0000, -6.705200248916167E-01,  6.924892857302986E-01,  3.002886213003552E-01,
2458339.500000000, A.D. 2018-Aug-09 00:00:00.0000, -7.312564655824856E-01,  6.382373934949682E-01,  2.767715294411573E-01,
2458344.500000000, A.D. 2018-Aug-14 00:00:00.0000, -7.867988128531804E-01,  5.793760213079255E-01,  2.512577489135098E-01,
2458349.500000000, A.D. 2018-Aug-19 00:00:00.0000, -8.367091556251981E-01,  5.163466056564876E-01,  2.239340833277098E-01,
2458354.500000000, A.D. 2018-Aug-24 00:00:00.0000, -8.806378855332675E-01,  4.496189106024364E-01,  1.950039576942884E-01,
2458359.500000000, A.D. 2018-Aug-29 00:00:00.0000, -9.182876577131051E-01,  3.796549872618630E-01,  1.646707548008164E-01,
2458364.500000000, A.D. 2018-Sep-03 00:00:00.0000, -9.493839289578037E-01,  3.069161861301209E-01,  1.331376467955469E-01,
2458369.500000000, A.D. 2018-Sep-08 00:00:00.0000, -9.736575254584421E-01,  2.318863461228118E-01,  1.006144467207613E-01,
2458374.500000000, A.D. 2018-Sep-13 00:00:00.0000, -9.908642536694247E-01,  1.551107119118940E-01,  6.733334233663663E-02,
2458379.500000000, A.D. 2018-Sep-18 00:00:00.0000, -1.000850463367796E+00,  7.718147845304045E-02,  3.354841081433902E-02,
2458384.500000000, A.D. 2018-Sep-23 00:00:00.0000, -1.003549362691021E+00, -1.325253261348555E-03, -4.885670154478191E-04,
2458389.500000000, A.D. 2018-Sep-28 00:00:00.0000, -9.989390030366930E-01, -7.985806029372065E-02, -3.453506880187893E-02,
2458394.500000000, A.D. 2018-Oct-03 00:00:00.0000, -9.870183317269632E-01, -1.578754682582561E-01, -6.835461268884969E-02,
2458399.500000000, A.D. 2018-Oct-08 00:00:00.0000, -9.678039155528527E-01, -2.348111391781998E-01, -1.017042406708215E-01,
2458404.500000000, A.D. 2018-Oct-13 00:00:00.0000, -9.413801075750535E-01, -3.100561513931747E-01, -1.343240572526330E-01,
2458409.500000000, A.D. 2018-Oct-18 00:00:00.0000, -9.079361611992910E-01, -3.830120957283425E-01, -1.659544799561350E-01,
2458414.500000000, A.D. 2018-Oct-23 00:00:00.0000, -8.677273763520318E-01, -4.531304178730859E-01, -1.963544470431594E-01,
2458419.500000000, A.D. 2018-Oct-28 00:00:00.0000, -8.210404807070517E-01, -5.199049308426477E-01, -2.253016495694841E-01,
2458424.500000000, A.D. 2018-Nov-02 00:00:00.0000, -7.681736119754334E-01, -5.828470711317972E-01, -2.525849734436689E-01,
2458429.500000000, A.D. 2018-Nov-07 00:00:00.0000, -7.094613010861228E-01, -6.414499225412393E-01, -2.779888540609955E-01,
2458434.500000000, A.D. 2018-Nov-12 00:00:00.0000, -6.453288768704635E-01, -6.952122082572643E-01, -3.012979311115089E-01,
2458439.500000000, A.D. 2018-Nov-17 00:00:00.0000, -5.762812778533789E-01, -7.436953447608307E-01, -3.223196722941205E-01,
2458444.500000000, A.D. 2018-Nov-22 00:00:00.0000, -5.028565827965433E-01, -7.865326057731398E-01, -3.408916850414475E-01,
